{
  "type": "FeatureCollection",
  "features": [
    {
      "type": "Feature",
      "properties": {
        "norad_id": 66909,
        "name": "SILVERSAT",
        "group": "stations",
        "lat": -11.75557557675571,
        "lon": -88.42292942959504,
        "alt_km": 410.11993064398484,
        "timestamp": "2025-12-24T20:42:19.779322+00:00",
        "meta_object_name": "SILVERSAT",
        "meta_object_id": "1998-067XV",
        "meta_epoch": "2025-12-24T05:58:18.632928",
        "meta_mean_motion": 15.53164124,
        "meta_eccentricity": 0.00038593,
        "meta_inclination": 51.6308,
        "meta_ra_of_asc_node": 85.1451,
        "meta_arg_of_pericenter": 300.0708,
        "meta_mean_anomaly": 59.99,
        "meta_ephemeris_type": 0,
        "meta_classification_type": "U",
        "meta_norad_cat_id": 66909,
        "meta_element_set_no": 999,
        "meta_rev_at_epoch": 340,
        "meta_bstar": 0.0012166372,
        "meta_mean_motion_dot": 0.00078073,
        "meta_mean_motion_ddot": 0,
        "tle_line1": "1 66909U 98067XV  25358.24882677  .00078073  00000+0  12166-2 0  9999",
        "tle_line2": "2 66909  51.6308  85.1451 0003859 300.0708  59.9900 15.53164124  3403"
      },
      "geometry": {
        "type": "Point",
        "coordinates": [
          -88.42292942959504,
          -11.75557557675571
        ]
      }
    },
    {
      "type": "Feature",
      "properties": {
        "norad_id": 66910,
        "name": "1998-067XW",
        "group": "stations",
        "lat": -18.872982433860702,
        "lon": -82.22047542046717,
        "alt_km": 409.23844615260623,
        "timestamp": "2025-12-24T20:42:19.779332+00:00",
        "meta_object_name": "1998-067XW",
        "meta_object_id": "1998-067XW",
        "meta_epoch": "2025-12-23T11:23:56.481792",
        "meta_mean_motion": 15.5298943,
        "meta_eccentricity": 0.00039882,
        "meta_inclination": 51.6309,
        "meta_ra_of_asc_node": 88.9767,
        "meta_arg_of_pericenter": 265.4983,
        "meta_mean_anomaly": 94.5551,
        "meta_ephemeris_type": 0,
        "meta_classification_type": "U",
        "meta_norad_cat_id": 66910,
        "meta_element_set_no": 999,
        "meta_rev_at_epoch": 328,
        "meta_bstar": 0.00097986031,
        "meta_mean_motion_dot": 0.00062264,
        "meta_mean_motion_ddot": 0,
        "tle_line1": "1 66910U 98067XW  25357.47495928  .00062264  00000+0  97986-3 0  9993",
        "tle_line2": "2 66910  51.6309  88.9767 0003988 265.4983  94.5551 15.52989430  3286"
      },
      "geometry": {
        "type": "Point",
        "coordinates": [
          -82.22047542046717,
          -18.872982433860702
        ]
      }
    },
    {
      "type": "Feature",
      "properties": {
        "norad_id": 66911,
        "name": "1998-067XX",
        "group": "stations",
        "lat": -33.86403825163826,
        "lon": -65.85749177296594,
        "alt_km": 408.5170687172076,
        "timestamp": "2025-12-24T20:42:19.779342+00:00",
        "meta_object_name": "1998-067XX",
        "meta_object_id": "1998-067XX",
        "meta_epoch": "2025-12-24T05:50:45.830400",
        "meta_mean_motion": 15.53583862,
        "meta_eccentricity": 0.00036335,
        "meta_inclination": 51.6309,
        "meta_ra_of_asc_node": 85.1103,
        "meta_arg_of_pericenter": 279.0791,
        "meta_mean_anomaly": 80.9788,
        "meta_ephemeris_type": 0,
        "meta_classification_type": "U",
        "meta_norad_cat_id": 66911,
        "meta_element_set_no": 999,
        "meta_rev_at_epoch": 339,
        "meta_bstar": 0.0012104757,
        "meta_mean_motion_dot": 0.00078877,
        "meta_mean_motion_ddot": 0,
        "tle_line1": "1 66911U 98067XX  25358.24358600  .00078877  00000+0  12105-2 0  9991",
        "tle_line2": "2 66911  51.6309  85.1103 0003633 279.0791  80.9788 15.53583862  3398"
      },
      "geometry": {
        "type": "Point",
        "coordinates": [
          -65.85749177296594,
          -33.86403825163826
        ]
      }
    },
    {
      "type": "Feature",
      "properties": {
        "norad_id": 66912,
        "name": "1998-067XY",
        "group": "stations",
        "lat": 19.81609227796049,
        "lon": -114.41787297827531,
        "alt_km": 409.6441959060048,
        "timestamp": "2025-12-24T20:42:19.779352+00:00",
        "meta_object_name": "1998-067XY",
        "meta_object_id": "1998-067XY",
        "meta_epoch": "2025-12-23T06:57:34.859520",
        "meta_mean_motion": 15.52133019,
        "meta_eccentricity": 0.00038791,
        "meta_inclination": 51.6317,
        "meta_ra_of_asc_node": 89.9922,
        "meta_arg_of_pericenter": 281.5198,
        "meta_mean_anomaly": 78.5356,
        "meta_ephemeris_type": 0,
        "meta_classification_type": "U",
        "meta_norad_cat_id": 66912,
        "meta_element_set_no": 999,
        "meta_rev_at_epoch": 324,
        "meta_bstar": 0.00084098106,
        "meta_mean_motion_dot": 0.00051669,
        "meta_mean_motion_ddot": 0,
        "tle_line1": "1 66912U 98067XY  25357.28998680  .00051669  00000+0  84098-3 0  9994",
        "tle_line2": "2 66912  51.6317  89.9922 0003879 281.5198  78.5356 15.52133019  3242"
      },
      "geometry": {
        "type": "Point",
        "coordinates": [
          -114.41787297827531,
          19.81609227796049
        ]
      }
    }
  ]
}